QZS-1R                  
1 49336U 21096A   24246.47377152 -.00000268  00000+0  00000+0 0  9992
2 49336  36.1015  89.3551 0742359 269.4914 287.2014  1.00296456 10467
